GALAXY 25 (G-25)        
1 24812U 97026A   24184.72132624  .00000056  00000+0  00000+0 0  9996
2 24812   5.5792  75.9488 0011252   0.1033 179.1377  0.99090462 99143
INTELSAT 5 (IS-5)       
1 24916U 97046A   24184.51706286 -.00000071  00000+0  00000+0 0  9999
2 24916   8.8341  55.3453 0003135  89.4018 128.5780  1.00272348 98459
GALAXY 11 (G-11)        
1 26038U 99071A   24185.16472904 -.00000059  00000+0  00000+0 0  9991
2 26038   4.8953  79.0814 0000815 151.9306 276.2481  1.00272840 89919
INTELSAT 9 (IS-9)       
1 26451U 00043A   24184.90327289  .00000081  00000+0  00000+0 0  9991
2 26451   8.8205  55.5372 0002474  75.7193 127.6797  1.00385150 36987
INTELSAT 1R (IS-1R)     
1 26608U 00072A   24184.92989921 -.00000145  00000+0  00000+0 0  9998
2 26608   6.3039  72.5440 0000400 121.0331 219.7229  1.00271757 86491
INTELSAT 10 (IS-10)     
1 26766U 01019A   24185.53203051 -.00000330  00000+0  00000+0 0  9992
2 26766   7.3627  66.4948 0003127  49.1819 104.7321  1.00119408 84774
INTELSAT 901 (IS-901)   
1 26824U 01024A   24185.46563118 -.00000202  00000+0  00000+0 0  9996
2 26824   0.0156 334.5959 0000585 106.5180 340.9860  1.00270799 84437
INTELSAT 902 (IS-902)   
1 26900U 01039A   24185.46119302 -.00000287  00000+0  00000+0 0  9992
2 26900   4.3021  80.4578 0004867  38.9353 278.5165  1.00271507 83612
INTELSAT 904 (IS-904)   
1 27380U 02007A   24185.46528309 -.00000220  00000+0  00000+0 0  9999
2 27380   5.1211  77.6641 0003119  34.8038 307.4964  1.00270358 81933
DIRECTV 5 (TEMPO 1)     
1 27426U 02023A   24184.87674024 -.00000058  00000+0  00000+0 0  9997
2 27426   3.0414  84.2625 0002981  23.6470  18.9957  1.00272353 80969
INTELSAT 905 (IS-905)   
1 27438U 02027A   24185.46624034 -.00000190  00000+0  00000+0 0  9993
2 27438   4.9467  78.3207 0002375  28.3324 318.6596  1.00271274 80811
GALAXY 3C (G-3C)        
1 27445U 02030A   24184.87978604 -.00000152  00000+0  00000+0 0  9992
2 27445   1.8861  86.6349 0003395  35.3103  21.3090  1.00270766 39331
INTELSAT 906 (IS-906)   
1 27513U 02041A   24184.87826973  .00000011  00000+0  00000+0 0  9994
2 27513   3.9764  81.7111 0003773  18.2344 201.7731  1.00273045 79863
GALAXY 23 (G-23)        
1 27854U 03034A   24185.51745757  .00000011  00000+0  00000+0 0  9997
2 27854   1.3476  88.8630 0002781  25.5495 233.0109  1.00273005 81397
GALAXY 13 (HORIZONS-1)  
1 27954U 03044A   24184.72577910  .00000134  00000+0  00000+0 0  9991
2 27954   0.0473  72.0704 0001114  99.8698 220.5074  1.00276282 75997
INTELSAT 10-02          
1 28358U 04022A   24185.38313487 -.00000011  00000+0  00000+0 0  9992
2 28358   0.0137 313.6314 0000502 159.3944 305.7914  1.00270083 73473
XM-3 (RHYTHM)           
1 28626U 05008A   24184.88178755 -.00000203  00000+0  00000+0 0  9999
2 28626   0.0132  14.8431 0004727 211.4862 287.3530  1.00268809 35467
DIRECTV 8               
1 28659U 05019A   24184.87491277  .00000003  00000+0  00000+0 0  9990
2 28659   0.0182 339.2750 0002770 131.1010   6.9320  1.00272453 69914
GALAXY 28 (G-28)        
1 28702U 05022A   24185.47584258 -.00000186  00000+0  00000+0 0  9995
2 28702   1.4521  87.7966 0001201 149.6948 126.7914  1.00270931 69673
GALAXY 14 (G-14)        
1 28790U 05030A   24185.47764030  .00000152  00000+0  00000+0 0  9991
2 28790   3.1722  83.6556 0001247  15.4551  27.7022  1.00270062 69149
SPACEWAY 2              
1 28903U 05046B   24185.52132611  .00000099  00000+0  00000+0 0  9994
2 28903   3.6471  80.0979 0000498 186.8591  63.8385  1.00271199 68341
GALAXY 16 (G-16)        
1 29236U 06023A   24185.05882917 -.00000126  00000+0  00000+0 0  9991
2 29236   0.0138  28.4502 0002365  82.7450  92.5511  1.00271337 66109
DIRECTV 9S              
1 29494U 06043A   24184.66388446 -.00000112  00000+0  00000+0 0  9998
2 29494   0.5701  89.4332 0002756  16.7451 312.7913  1.00271754 44210
GALAXY 17 (G-17)        
1 31307U 07016B   24185.09647618 -.00000206  00000+0  00000+0 0  9996
2 31307   1.1569  89.1977 0004496  32.2278 109.8897  1.00271057 62919
DIRECTV 10              
1 31862U 07032A   24184.66353637 -.00000101  00000+0  00000+0 0  9991
2 31862   0.0109 251.2362 0000296 323.4689 202.5496  1.00272644 38426
INTELSAT 11 (IS-11)     
1 32253U 07044B   24185.46258538 -.00000270  00000+0  00000+0 0  9999
2 32253   1.7059  87.6221 0002926  25.5827 292.2710  1.00270240 61379
HORIZONS-2              
1 32388U 07063B   24184.88405014 -.00000252  00000+0  00000+0 0  9997
2 32388   0.7520  89.5418 0001886  21.4947  54.8099  1.00271880 60654
DIRECTV 11              
1 32729U 08013A   24184.87900282 -.00000124  00000+0  00000+0 0  9996
2 32729   0.0509 178.0193 0000310 332.1236 348.4868  1.00270412 59778
GALAXY 18 (G-18)        
1 32951U 08024A   24185.51618053  .00000026  00000+0  00000+0 0  9999
2 32951   0.0186 337.8366 0003017 138.1995 228.7942  1.00270174 58931
INTELSAT 25 (IS-25)     
1 33153U 08034A   24185.10711601 -.00000224  00000+0  00000+0 0  9994
2 33153   0.8602  89.1785 0002913  22.9111 176.5717  1.00272284 58476
GALAXY 19 (G-19)        
1 33376U 08045A   24184.66475468 -.00000137  00000+0  00000+0 0  9994
2 33376   0.0448 274.7492 0002750 202.7276 306.0133  1.00272085 57738
FM-5                    
1 35493U 09034A   24185.47063267 -.00000200  00000+0  00000+0 0  9996
2 35493   0.0117 323.1199 0000914 299.1350 102.9927  1.00270555 54820
INTELSAT 14 (IS-14)     
1 36097U 09064A   24185.10441830 -.00000272  00000+0  00000+0 0  9995
2 36097   0.0107 339.5047 0002225 126.5395 168.1579  1.00270739 53530
INTELSAT 15 (IS-15)     
1 36106U 09067A   24184.90952264 -.00000184  00000+0  00000+0 0  9996
2 36106   0.0038  97.6878 0001957   9.4995 226.8105  1.00271652 34063
DIRECTV 12              
1 36131U 09075A   24184.66362338 -.00000101  00000+0  00000+0 0  9992
2 36131   0.0189 194.9526 0000195 124.2412  98.1530  1.00272052 39390
INTELSAT 16 (IS-16)     
1 36397U 10006A   24184.88352800 -.00000243  00000+0  00000+0 0  9996
2 36397   0.0119  25.9618 0002434 107.5469  29.7448  1.00271063 52491
XM-5                    
1 37185U 10053A   24184.51797888 -.00000021  00000+0  00000+0 0  9997
2 37185   0.0181  21.9878 0000351 212.6323 117.6920  1.00271082 50281
INTELSAT 17 (IS-17)     
1 37238U 10065B   24184.91179851 -.00000001  00000+0  00000+0 0  9995
2 37238   0.0292  66.3004 0002572  49.8504 199.5099  1.00272981 46072
INTELSAT NEW DAWN       
1 37392U 11016A   24185.09632709  .00000157  00000+0  00000+0 0  9990
2 37392   0.0135  78.4903 0000881  48.2267 222.3619  1.00271305 48356
INTELSAT 18 (IS-18)     
1 37834U 11056A   24185.49268328  .00000053  00000+0  00000+0 0  9996
2 37834   0.0278  79.6636 0001655  31.3046 168.3992  1.00273755 46687
INTELSAT 22 (IS-22)     
1 38098U 12011A   24184.87271833 -.00000057  00000+0  00000+0 0  9992
2 38098   0.0437  67.8988 0001864  47.8232 191.9354  1.00271246    22
INTELSAT 19 (IS-19)     
1 38356U 12030A   24184.84146562 -.00000055  00000+0  00000+0 0  9995
2 38356   0.0142   0.6571 0002796 108.7241 280.8953  1.00270827 44358
INTELSAT 20 (IS-20)     
1 38740U 12043A   24184.84071288 -.00000023  00000+0  00000+0 0  9993
2 38740   0.0093  51.1112 0000773 132.1618 109.2364  1.00271434 43583
INTELSAT 21 (IS-21)     
1 38749U 12045A   24185.10178456 -.00000284  00000+0  00000+0 0  9998
2 38749   0.0125  62.0106 0001739  57.3987 140.8361  1.00270905 43470
INTELSAT 23 (IS-23)     
1 38867U 12057A   24184.74483705 -.00000283  00000+0  00000+0 0  9996
2 38867   0.0439 228.5425 0000742 160.3921 107.4712  1.00274730 42948
FM-6                    
1 39360U 13058A   24184.87560896 -.00000015  00000+0  00000+0 0  9991
2 39360   0.0346  55.7974 0000386 303.6384 120.9987  1.00270257 38907
INTELSAT 30 (IS-30)     
1 40271U 14062A   24184.87969900 -.00000149  00000+0  00000+0 0  9997
2 40271   0.0098  16.4701 0001756 324.4897 162.0561  1.00270087 35608
DIRECTV 14              
1 40333U 14078B   24185.52895944 -.00000125  00000+0  00000+0 0  9996
2 40333   0.0162 359.5676 0000139 268.3946 105.2531  1.00272782 35099
DIRECTV 15              
1 40663U 15026A   24185.06438348 -.00000101  00000+0  00000+0 0  9990
2 40663   0.0301  80.6224 0000232 153.2854 327.9771  1.00270349 33370
SKY MEXICO-1            
1 40664U 15026B   24184.81144146 -.00000232  00000+0  00000+0 0  9998
2 40664   0.0247 298.2834 0001889 168.0398  28.3462  1.00269885 33293
INTELSAT 34 (IS-34)     
1 40874U 15039A   24184.24361226 -.00000283  00000+0  00000+0 0  9998
2 40874   0.0211 354.0802 0001063   4.7695 314.1344  1.00272097 32454
INTELSAT 31 (IS-31)     
1 41581U 16035A   24184.59351074 -.00000149  00000+0  00000+0 0  9990
2 41581   0.0147  79.4502 0000921 100.4326 219.8381  1.00272457 29526
INTELSAT 36 (IS-36)     
1 41747U 16053A   24185.12695716 -.00000023  00000+0  00000+0 0  9999
2 41747   0.0107  16.8948 0002493 344.5045  34.4265  1.00271013 28786
INTELSAT 33E (IS-33E)   
1 41748U 16053B   24185.12530373  .00000050  00000+0  00000+0 0  9996
2 41748   0.0158 356.4420 0001541  92.6798 297.6023  1.00270192 29064
INTELSAT 32E (IS-32E)   
1 41945U 17007B   24184.81857730 -.00000267  00000+0  00000+0 0  9990
2 41945   0.0160  42.9534 0000453 289.7926 200.0877  1.00269500 27066
INTELSAT 35E (IS-35E)   
1 42818U 17041A   24184.74866604 -.00000236  00000+0  00000+0 0  9996
2 42818   0.0156 302.4361 0001041 152.9748  60.8637  1.00272514 25658
INTELSAT 37E (IS-37E)   
1 42950U 17059A   24185.47316851 -.00000141  00000+0  00000+0 0  9992
2 42950   0.0283  37.5999 0002569  95.9312 300.7734  1.00269256 24896
AZERSPACE 2 (IS-38)     
1 43632U 18074A   24185.48007693  .00000137  00000+0  00000+0 0  9994
2 43632   0.0180  33.5737 0001200  80.8274  25.5193  1.00271610 21285
HORIZONS-3E             
1 43633U 18074B   24184.64604480 -.00000029  00000+0  00000+0 0  9990
2 43633   0.0665 214.4437 0001000  60.2201  48.0775  1.00269803 21176
AT&T T-16               
1 44333U 19034A   24185.52819747 -.00000115  00000+0  00000+0 0  9993
2 44333   0.0182 345.1657 0000930 280.7649 105.3774  1.00269431 18472
INTELSAT 39 (IS-39)     
1 44476U 19049B   24185.07966080  .00000035  00000+0  00000+0 0  9990
2 44476   0.0073  27.1278 0001048 307.8113  37.2650  1.00271316 17978
GALAXY 30 (G-30)        
1 46114U 20056C   24184.73073939  .00000039  00000+0  00000+0 0  9999
2 46114   0.0138  53.2642 0001756  52.0255 314.0261  1.00270513 14124
GALAXY 33 (G-33)        
1 54026U 22128A   24185.56972866  .00000079  00000+0  00000+0 0  9995
2 54026   0.0176  29.9230 0001646  70.8135 253.4223  1.00270041  6595
GALAXY 34 (G-34)        
1 54027U 22128B   24184.72995618  .00000060  00000+0  00000+0 0  9993
2 54027   0.0210  15.0898 0001389  91.7474 308.2717  1.00271835  6749
GALAXY 31 (G-31)        
1 54243U 22153A   24185.51988674  .00000013  00000+0  00000+0 0  9991
2 54243   0.0131  73.4571 0001053  33.5254 241.1984  1.00272546  5992
GALAXY 32 (G-32)        
1 54244U 22153B   24184.95208998 -.00000173  00000+0  00000+0 0  9991
2 54244   0.0086 348.9440 0001699  57.1082 127.1528  1.00270889  6002
GALAXY 35 (G-35)        
1 54741U 22170A   24184.88013412 -.00000161  00000+0  00000+0 0  9996
2 54741   0.0168  51.2384 0001725  65.6077  28.2834  1.00271065  5731
GALAXY 36 (G-36)        
1 54742U 22170B   24184.95243807 -.00000184  00000+0  00000+0 0  9993
2 54742   0.0157 331.9215 0002803 133.8245  69.5833  1.00272886  5755
GALAXY 37 (G-37)        
1 57493U 23112A   24184.73030427  .00000050  00000+0  00000+0 0  9995
2 57493   0.0097   8.1272 0001772  96.9625 312.0655  1.00273276  3373
